0 FENGYUN 1C DEB
1 30339U 99025ABA 13284.19533080  .00002030  00000-0  12072-2 0   798
2 30339 099.0070 265.5049 0036654 109.5058 018.6227 14.08241381344872
0 FENGYUN 1C DEB
1 30339U 99025ABA 13286.66775757  .00002122  00000-0  12604-2 0   806
2 30339 099.0066 267.9724 0036747 102.5368 313.0884 14.08250397345221
0 FENGYUN 1C DEB
1 30339U 99025ABA 13289.16890671  .00002674  00000-0  15807-2 0   818
2 30339 099.0067 270.4688 0036933 095.7360 033.0219 14.08263599345579
0 FENGYUN 1C DEB
1 30339U 99025ABA 13291.51310979  .00002433  00000-0  14402-2 0   822
2 30339 099.0074 272.8083 0036979 089.4446 037.3127 14.08273653345901
0 FENGYUN 1C DEB
1 30339U 99025ABA 13293.84573340  .00003143  00000-0  18525-2 0   833
2 30339 099.0082 275.1365 0037033 083.1866 342.9891 14.08283083346236
0 FENGYUN 1C DEB
1 30339U 99025ABA 13295.90540396  .00003520  00000-0  20713-2 0   849
2 30339 099.0086 277.1926 0037088 077.5993 345.0126 14.08294743346525
